{"type": "FeatureCollection", "features": [{"type": "Feature", "properties": {"id": 1, "object_type": "oks_connection_point", "flow_tph": 24.87}, "geometry": {"type": "Point", "coordinates": [37.6344054041544, 55.6994810644531]}}, {"type": "Feature", "properties": {"id": 2, "object_type": "oks_connection_point", "flow_tph": 18.76}, "geometry": {"type": "Point", "coordinates": [37.6345829261805, 55.6998544638392]}}, {"type": "Feature", "properties": {"id": 18, "object_type": "restriction", "restriction_type": "railway"}, "geometry": {"type": "MultiPolygon", "coordinates": [[[[37.657171726075234, 55.70326477476388], [37.658165733407884, 55.70335697842791], [37.657949003, 55.703179835], [37.657808864, 55.703060335], [37.657800076, 55.70305285], [37.657682228, 55.702952442], [37.657547002, 55.702837108], [37.657294394, 55.702621655], [37.657225765, 55.702563121], [37.656672352, 55.702106911], [37.656567816, 55.702020736], [37.656477967, 55.701953784], [37.6560146, 55.701608499], [37.655980601, 55.701583165], [37.65592482, 55.701545784], [37.655710087, 55.701401884], [37.655577926, 55.701313319], [37.655527065, 55.701333589], [37.655490426, 55.701348189], [37.655079195, 55.701536262], [37.654828248, 55.701399654], [37.649888914, 55.698710502], [37.649702318, 55.698617725], [37.6491047, 55.698320575], [37.649014929, 55.69827594], [37.648500683, 55.697999829], [37.64825785, 55.697869442], [37.64792664, 55.697691603], [37.647437417, 55.697428914], [37.646602749, 55.696980725], [37.646026454, 55.696671267], [37.645278848, 55.696269804], [37.645119611, 55.696187332], [37.644901572, 55.6960744], [37.644106793, 55.695662747], [37.64400356, 55.695609276], [37.64373543, 55.695470395], [37.642934774, 55.695055678], [37.642646851, 55.694906535], [37.641358597, 55.694239204], [37.64124679, 55.694181424], [37.641169821, 55.694141892], [37.641092259, 55.69410273], [37.641014113, 55.694063942], [37.64097549, 55.694045097], [37.640935384, 55.69402553], [37.640614661, 55.693875701], [37.640100358, 55.693655984], [37.640093867, 55.69365321], [37.640089856, 55.693651587], [37.63954848, 55.693445154], [37.638986705, 55.693254776], [37.638985561, 55.693254411], [37.638411602, 55.693082696], [37.638401457, 55.693079862], [37.638326382, 55.693060252], [37.637813127, 55.692926193], [37.637809881, 55.692925406], [37.637353672, 55.692822548], [37.637204814, 55.692788985], [37.637145086, 55.692776643], [37.637082421, 55.692763912], [37.637019632, 55.692751375], [37.636956726, 55.692739032], [37.636893701, 55.692726881], [37.635672723, 55.692493569], [37.635457293, 55.6924524], [37.635408675, 55.692442733], [37.635373285, 55.692435697], [37.635289049, 55.692419363], [37.635204592, 55.692403398], [37.635119917, 55.692387806], [37.635038553, 55.692373219], [37.63503503, 55.692372587], [37.634949934, 55.692357739], [37.63486464, 55.692343267], [37.634779147, 55.692329172], [37.634715659, 55.692318965], [37.634652069, 55.692308966], [37.634588375, 55.692299175], [37.634524584, 55.692289591], [37.634460695, 55.692280217], [37.634396711, 55.692271048], [37.634332636, 55.692262089], [37.634268472, 55.692253339], [37.633432964, 55.69214084], [37.632154718, 55.691968713], [37.631367056, 55.691862641], [37.631039145, 55.691818479], [37.630645186, 55.691765422], [37.630612186, 55.691760978], [37.630502808, 55.692004294], [37.630457947, 55.692106002], [37.630433035, 55.692162476], [37.630465535, 55.692165668], [37.630897713, 55.692208111], [37.630983889, 55.692216574], [37.631028389, 55.692220946], [37.631043329, 55.692222412], [37.631058837, 55.692223935], [37.63107442, 55.692225465], [37.63114055, 55.692231961], [37.631140566, 55.692231962], [37.63136443, 55.692253948], [37.631395913, 55.69225704], [37.631529093, 55.692270117], [37.632751769, 55.692390183], [37.632834562, 55.692398483], [37.632917241, 55.692407139], [37.6329998, 55.692416145], [37.633082236, 55.692425503], [37.633164547, 55.692435214], [37.633246726, 55.692445275], [37.633297549, 55.692451724], [37.633328768, 55.692455685], [37.633410669, 55.692466447], [37.63493463, 55.692670363], [37.634944013, 55.692671704], [37.634953293, 55.692673201], [37.634993134, 55.69267819], [37.634998375, 55.692678892], [37.635002517, 55.69267945], [37.635007433, 55.692680113], [37.635011703, 55.692680692], [37.635015391, 55.692681193], [37.635080698, 55.692690279], [37.63514461, 55.692699576], [37.635208345, 55.692709246], [37.635271904, 55.692719288], [37.635332348, 55.692729213], [37.635392616, 55.692739476], [37.635452701, 55.692750073], [37.635512598, 55.692761009], [37.63563919, 55.692784524], [37.6359018, 55.692833307], [37.635935129, 55.692839498], [37.636245286, 55.692908689], [37.636359231, 55.692934108], [37.636904674, 55.693055783], [37.636909124, 55.693056928], [37.637076894, 55.69310145], [37.637221104, 55.693139719], [37.637263389, 55.693150939], [37.637341338, 55.693171624], [37.637705015, 55.693268131], [37.638491475, 55.693497229], [37.639206152, 55.693724875], [37.639648607, 55.693876798], [37.639726115, 55.693906903], [37.639959223, 55.693997451], [37.639970339, 55.694002007], [37.640268908, 55.694130501], [37.640269921, 55.694130954], [37.640614803, 55.694286932], [37.641359978, 55.694623937], [37.641465583, 55.69467169], [37.641513139, 55.694693337], [37.64156045, 55.694715155], [37.641607511, 55.694737145], [37.641654326, 55.694759305], [37.641700886, 55.694781632], [37.641747192, 55.694804129], [37.641793245, 55.694826791], [37.641839038, 55.694849619], [37.641884569, 55.694872614], [37.641929842, 55.694895771], [37.641974851, 55.694919094], [37.642019596, 55.694942577], [37.642064072, 55.694966222], [37.642108278, 55.694990027], [37.642152217, 55.695013992], [37.642195881, 55.695038114], [37.64228944, 55.695090135], [37.643329162, 55.695668233], [37.643339316, 55.695673879], [37.643536103, 55.69578329], [37.644003948, 55.696043403], [37.644308721, 55.696212848], [37.644462486, 55.696298337], [37.644521229, 55.696330995], [37.644681959, 55.696420355], [37.645590652, 55.696925542], [37.645595847, 55.69692843], [37.645677308, 55.696972401], [37.646165443, 55.697235878], [37.646790879, 55.697573458], [37.647029429, 55.697708404], [37.647880383, 55.698180929], [37.648087433, 55.698290224], [37.647969093, 55.698366604], [37.647951681, 55.698392896], [37.648013777, 55.698432711], [37.648058204, 55.698430367], [37.648199273, 55.698350358], [37.648639712, 55.698589847], [37.648858726, 55.698708932], [37.648946898, 55.698756875], [37.649213022, 55.698901075], [37.649353876, 55.698977396], [37.649883278, 55.699264249], [37.650709093, 55.699720708], [37.651203142, 55.700037217], [37.650950894, 55.700174987], [37.650967786, 55.700186703], [37.651412875, 55.700454266], [37.651466426, 55.700483763], [37.651739892, 55.700330904], [37.652486448, 55.700745283], [37.652820711, 55.700930814], [37.653335681, 55.70120852], [37.653681506, 55.701395005], [37.653835587, 55.701478095], [37.65428479, 55.701720323], [37.654410397, 55.701788054], [37.654703865, 55.7019463], [37.654817833, 55.702007755], [37.654859955, 55.702030468], [37.655048989, 55.702132399], [37.655580382, 55.702418932], [37.65580289, 55.70253891], [37.655583133, 55.702668793], [37.65589917, 55.702839201], [37.655962755, 55.702873485], [37.656019978, 55.702839048], [37.656180279, 55.702742576], [37.656373262, 55.702838601], [37.656561349, 55.702932185], [37.656627336, 55.702965018], [37.656894345, 55.703115146], [37.657160266, 55.703258593], [37.657171726075234, 55.70326477476388]]]]}}, {"type": "Feature", "properties": {"id": 19, "object_type": "restriction", "restriction_type": "water"}, "geometry": {"type": "MultiPolygon", "coordinates": [[[[37.630310992825386, 55.6912921320427], [37.62769081108417, 55.690915329577294], [37.6273536, 55.6919243], [37.6270446, 55.6929886], [37.626872, 55.6938453], [37.6264196, 55.6967756], [37.6263081, 55.6977889], [37.6262685, 55.6988804], [37.6262745, 55.6993422], [37.6267792, 55.6995705], [37.6268869, 55.7004561], [37.6264422, 55.7007383], [37.6264819, 55.7010173], [37.6265599, 55.701814], [37.6265971, 55.7021929], [37.626619, 55.7023388], [37.6265458, 55.7023425], [37.6265953, 55.7026574], [37.6266685, 55.7026538], [37.6267166, 55.703009], [37.6266472, 55.7030113], [37.6266851, 55.7033788], [37.6267455, 55.7033743], [37.6267986, 55.7037273], [37.6268945, 55.7042344], [37.6270762, 55.705048], [37.62724598791366, 55.70554663888263], [37.629616988018505, 55.705297649239995], [37.6293972, 55.7048592], [37.6293312, 55.7046621], [37.6292719, 55.7044068], [37.629185, 55.7040221], [37.6291442, 55.7036327], [37.629126, 55.7032967], [37.6291061, 55.702747], [37.6290981, 55.7023468], [37.6290922, 55.7019656], [37.6289913, 55.701861], [37.628934, 55.7017921], [37.6287693, 55.7013923], [37.6287639, 55.7013334], [37.6287939, 55.701248], [37.6290016, 55.7010306], [37.6290053, 55.7007756], [37.6290595, 55.700748], [37.6290616, 55.7002043], [37.628902, 55.7002036], [37.6289046, 55.7000393], [37.6289114, 55.6996178], [37.6290777, 55.6996164], [37.6291303, 55.6977821], [37.6289986, 55.6977821], [37.6290038, 55.6976247], [37.6290107, 55.697414], [37.6291394, 55.6974155], [37.6292934, 55.6958379], [37.629384, 55.6951867], [37.6293959, 55.6951014], [37.6294218, 55.6948828], [37.6297569, 55.6932063], [37.6298918, 55.6925551], [37.629994, 55.6920752], [37.6301262, 55.6917174], [37.630310992825386, 55.6912921320427]]]]}}, {"type": "Feature", "properties": {"id": 20, "object_type": "restriction", "restriction_type": "water"}, "geometry": {"type": "MultiPolygon", "coordinates": [[[[37.6392025, 55.694628], [37.6392086, 55.6946581], [37.6392392, 55.6947002], [37.6392703, 55.6947208], [37.639317, 55.6947392], [37.6394982, 55.6947776], [37.6395246, 55.6947884], [37.6395375, 55.6947979], [37.63955, 55.6948193], [37.6395518, 55.6948616], [37.6395409, 55.694904], [37.6395359, 55.6949424], [37.6395422, 55.6949475], [37.6395484, 55.6949493], [37.6395581, 55.6949495], [37.6395743, 55.6949465], [37.6396323, 55.6949339], [37.6396738, 55.6949285], [37.6397147, 55.6949259], [37.6397556, 55.6949335], [37.6397931, 55.6949508], [37.6398285, 55.6949756], [37.6398647, 55.6950006], [37.6399033, 55.69501], [37.639942, 55.6950104], [37.6399863, 55.6949999], [37.640066, 55.6949677], [37.6401077, 55.6949507], [37.6401432, 55.6949464], [37.6401754, 55.6949485], [37.6402045, 55.6949556], [37.6402319, 55.6949696], [37.6402858, 55.6950267], [37.6403223, 55.6950658], [37.6403524, 55.6950981], [37.6403711, 55.6951182], [37.6403915, 55.6951274], [37.6404098, 55.6951284], [37.6404288, 55.695123], [37.640468, 55.6950968], [37.6405306, 55.6950663], [37.6405619, 55.6950547], [37.64059, 55.69505], [37.6406299, 55.6950504], [37.6407359, 55.695049], [37.6407805, 55.6950443], [37.6408199, 55.6950342], [37.6408502, 55.6950212], [37.640885, 55.6949932], [37.6408933, 55.6949749], [37.6408851, 55.6949468], [37.6408545, 55.6949247], [37.6408093, 55.6949113], [37.6407543, 55.6949001], [37.6407017, 55.694894], [37.6406353, 55.6948921], [37.6405755, 55.6948958], [37.6405196, 55.6949042], [37.640456, 55.6949141], [37.6403966, 55.6949109], [37.6403535, 55.6949006], [37.6403242, 55.6948883], [37.6402944, 55.6948681], [37.6402774, 55.6948479], [37.6402626, 55.6948286], [37.6402346, 55.6947639], [37.6402062, 55.6947202], [37.6401472, 55.6946915], [37.6400882, 55.694687], [37.6400252, 55.694693], [37.6399228, 55.6947117], [37.6398521, 55.6947166], [37.6398037, 55.6947132], [37.6397384, 55.6946989], [37.6396942, 55.6946807], [37.6396676, 55.6946603], [37.6396214, 55.6946054], [37.6396017, 55.6945789], [37.6395676, 55.6945519], [37.6395148, 55.694527], [37.6394558, 55.6945117], [37.6393962, 55.6945077], [37.6393293, 55.6945154], [37.6392567, 55.6945434], [37.6392264, 55.69457], [37.6392098, 55.6945954], [37.6392025, 55.694628]]]]}}, {"type": "Feature", "properties": {"id": 21, "object_type": "restriction", "restriction_type": "oks", "address": "Автозаводская улица, дом 23, строение 896"}, "geometry": {"type": "MultiPolygon", "coordinates": [[[[37.63811806, 55.702802981], [37.638120832, 55.702816922], [37.63808001, 55.70281947], [37.638084216, 55.702839405], [37.638124795, 55.702836852], [37.638126281, 55.702844322], [37.638211778, 55.702839081], [37.638208445, 55.702821307], [37.638229843, 55.70281984], [37.638224988, 55.702796313], [37.63811806, 55.702802981]]]]}}, {"type": "Feature", "properties": {"id": 22, "object_type": "restriction", "restriction_type": "oks", "address": "Автозаводская улица, дом 23, строение 2"}, "geometry": {"type": "MultiPolygon", "coordinates": [[[[37.649771111, 55.701506674], [37.649645643, 55.701580971], [37.649748379, 55.701639307], [37.649757959, 55.701634162], [37.65027526, 55.701949221], [37.650259635, 55.701957224], [37.650294572, 55.701978285], [37.650358577, 55.70194484], [37.650387428, 55.701962486], [37.650548193, 55.701878165], [37.650485435, 55.701840029], [37.650499037, 55.701830885], [37.649915928, 55.701475698], [37.649813103, 55.701529151], [37.649771111, 55.701506674]]]]}}, {"type": "Feature", "properties": {"id": 23, "object_type": "restriction", "restriction_type": "oks", "address": "Автозаводская улица, дом 25, корпус 1, строение 3"}, "geometry": {"type": "MultiPolygon", "coordinates": [[[[37.632965117, 55.702300453], [37.633038839, 55.70229695], [37.633031077, 55.702243345], [37.632957356, 55.702246848], [37.632965117, 55.702300453]]]]}}, {"type": "Feature", "properties": {"id": 24, "object_type": "restriction", "restriction_type": "oks", "address": "Автозаводская улица, дом 23, строение 23"}, "geometry": {"type": "MultiPolygon", "coordinates": [[[[37.638848102, 55.696630551], [37.638790069, 55.696544121], [37.638808503, 55.696540148], [37.638797952, 55.696524621], [37.638830847, 55.696517579], [37.638810383, 55.696487063], [37.638779872, 55.696493654], [37.638766283, 55.69647346], [37.638749598, 55.696477072], [37.638535374, 55.696158546], [37.638556192, 55.696154122], [37.638532372, 55.69611876], [37.638511554, 55.696123184], [37.638284866, 55.695786349], [37.638305683, 55.695781925], [37.638283463, 55.695748986], [37.638262646, 55.695753501], [37.638050669, 55.695438474], [37.638074187, 55.695433418], [37.638060119, 55.695412506], [37.638085704, 55.695406999], [37.638065722, 55.695377471], [37.638040137, 55.695382978], [37.638026869, 55.695363143], [37.63800335, 55.695368109], [37.637942603, 55.69527782], [37.637703606, 55.695329193], [37.637775702, 55.695436356], [37.637751108, 55.695452192], [37.637764377, 55.695472027], [37.637799681, 55.695471808], [37.638116206, 55.695942373], [37.638103493, 55.695945082], [37.638194936, 55.696081235], [37.638207808, 55.696078526], [37.638520346, 55.696542897], [37.638483989, 55.696560273], [37.638496298, 55.696578402], [37.638542888, 55.696576464], [37.63861323, 55.696680934], [37.638848102, 55.696630551]]]]}}, {"type": "Feature", "properties": {"id": 25, "object_type": "restriction", "restriction_type": "oks", "address": "Автозаводская улица, дом 25, строение 9"}, "geometry": {"type": "MultiPolygon", "coordinates": [[[[37.631770153, 55.703112533], [37.631945854, 55.703110065], [37.631943485, 55.703078378], [37.632115259, 55.70307568], [37.632111176, 55.702996284], [37.631938765, 55.702998984], [37.631937277, 55.702960662], [37.631761575, 55.702963129], [37.631760554, 55.702951412], [37.631741259, 55.702951849], [37.631753174, 55.703123106], [37.631770704, 55.703122921], [37.631770153, 55.703112533]]]]}}, {"type": "Feature", "properties": {"id": 26, "object_type": "restriction", "restriction_type": "oks", "address": "Автозаводская улица, дом 23, строение 20"}, "geometry": {"type": "MultiPolygon", "coordinates": [[[[37.632049572, 55.693434579], [37.632156133, 55.693596443], [37.632391253, 55.693547142], [37.632651206, 55.693939997], [37.632398808, 55.69399288], [37.632515027, 55.694171844], [37.6331886, 55.694032524], [37.633175395, 55.694012292], [37.633496286, 55.693945785], [37.633521157, 55.693984255], [37.633816816, 55.693923194], [37.633791881, 55.693884759], [37.633869562, 55.693867656], [37.633903952, 55.693914848], [37.634330958, 55.693821096], [37.634297982, 55.693772938], [37.635276738, 55.693560554], [37.635314288, 55.693615551], [37.635393491, 55.693598353], [37.635380804, 55.693579546], [37.635524591, 55.693548305], [37.635057241, 55.692861262], [37.634917984, 55.692891357], [37.634880958, 55.692839497], [37.633900674, 55.693045319], [37.633872263, 55.693002288], [37.633427779, 55.69309545], [37.63345619, 55.693138767], [37.632049572, 55.693434579]]]]}}, {"type": "Feature", "properties": {"id": 27, "object_type": "restriction", "restriction_type": "oks", "address": "Автозаводская улица, дом 23, корпус 11"}, "geometry": {"type": "MultiPolygon", "coordinates": [[[[37.636376013, 55.702042356], [37.636782224, 55.703267593], [37.637466273, 55.703196065], [37.637400963, 55.702997684], [37.637460635, 55.70299169], [37.637427537, 55.702860781], [37.637398563, 55.702746173], [37.637380698, 55.702692581], [37.637288841, 55.702417489], [37.637221472, 55.702215946], [37.637136259, 55.701961382], [37.636376013, 55.702042356]]]]}}, {"type": "Feature", "properties": {"id": 28, "object_type": "restriction", "restriction_type": "oks", "address": "Автозаводская улица, дом 23, корпус 12"}, "geometry": {"type": "MultiPolygon", "coordinates": [[[[37.637919474, 55.703982534], [37.637867736, 55.703819568], [37.638221728, 55.703784889], [37.63818493, 55.703656617], [37.637809369, 55.703692964], [37.637584686, 55.702979238], [37.637400963, 55.702997684], [37.637466273, 55.703196065], [37.636745489, 55.703272152], [37.636795275, 55.70342461], [37.636764717, 55.703428092], [37.636777471, 55.703463861], [37.63680677, 55.703460542], [37.636836077, 55.703557737], [37.636986789, 55.703542185], [37.637013749, 55.703625577], [37.637199086, 55.703605818], [37.637184488, 55.703562192], [37.637566424, 55.703527862], [37.637590898, 55.703605958], [37.637536413, 55.703611711], [37.637557865, 55.70367899], [37.637612435, 55.703674726], [37.637623587, 55.703710291], [37.636890697, 55.703787512], [37.636908099, 55.703842076], [37.636860481, 55.703847261], [37.636872839, 55.703886766], [37.636920868, 55.70388213], [37.636943781, 55.703953977], [37.637555541, 55.703889336], [37.637592774, 55.704013365], [37.637702369, 55.704002275], [37.637707207, 55.704017466], [37.637816136, 55.704006441], [37.637812005, 55.703993412], [37.637919474, 55.703982534]]]]}}, {"type": "Feature", "properties": {"id": 29, "object_type": "restriction", "restriction_type": "oks", "address": "Автозаводская улица, дом 23, строение 121"}, "geometry": {"type": "MultiPolygon", "coordinates": [[[[37.636549594, 55.693847387], [37.636460134, 55.693965282], [37.636411115, 55.693953643], [37.636379954, 55.693995883], [37.636428972, 55.694007521], [37.636330466, 55.694140806], [37.637301176, 55.694369866], [37.637278564, 55.694400689], [37.63749232, 55.694451213], [37.637515427, 55.694419532], [37.637623059, 55.694445079], [37.637909499, 55.694058063], [37.63775134, 55.694020881], [37.637705111, 55.694083101], [37.637498428, 55.694034283], [37.637363244, 55.694216943], [37.636670973, 55.694053453], [37.63675288, 55.693942713], [37.636942372, 55.693987562], [37.636974041, 55.693944749], [37.636549594, 55.693847387]]]]}}, {"type": "Feature", "properties": {"id": 30, "object_type": "restriction", "restriction_type": "oks", "address": "Автозаводская улица, дом 25, строение 2"}, "geometry": {"type": "MultiPolygon", "coordinates": [[[[37.633129477, 55.703721275], [37.633269706, 55.703715177], [37.633251054, 55.703578342], [37.63311084, 55.703584429], [37.633114983, 55.703614848], [37.633072789, 55.703617122], [37.633077612, 55.703649225], [37.633119431, 55.703647517], [37.633129477, 55.703721275]]]]}}, {"type": "Feature", "properties": {"id": 31, "object_type": "restriction", "restriction_type": "oks", "address": "Автозаводская улица, дом 23, строение 928"}, "geometry": {"type": "MultiPolygon", "coordinates": [[[[37.641188322, 55.70251604], [37.641039805, 55.702080178], [37.640987309, 55.702085941], [37.640979146, 55.702061996], [37.640125527, 55.702156791], [37.640041939, 55.701941295], [37.639979336, 55.701947924], [37.639981412, 55.701959614], [37.639995688, 55.701999523], [37.640063437, 55.702163705], [37.64021803, 55.702607261], [37.640792999, 55.702543297], [37.640798103, 55.702558407], [37.640898064, 55.702547455], [37.640954799, 55.702736461], [37.640622116, 55.702772201], [37.640632841, 55.702804699], [37.641024568, 55.702760905], [37.64095309, 55.702541404], [37.641188322, 55.70251604]]]]}}, {"type": "Feature", "properties": {"id": 32, "object_type": "restriction", "restriction_type": "oks", "address": "Автозаводская улица, дом 21А"}, "geometry": {"type": "MultiPolygon", "coordinates": [[[[37.653074643, 55.702826467], [37.653397433, 55.702638256], [37.65316854, 55.702513064], [37.653140926, 55.702529175], [37.653046883, 55.702477826], [37.653090049, 55.702452623], [37.652410074, 55.702080718], [37.652083475, 55.702271087], [37.652824179, 55.702676062], [37.652772126, 55.702706395], [37.652942202, 55.702799416], [37.652982352, 55.702775924], [37.653074643, 55.702826467]]]]}}, {"type": "Feature", "properties": {"id": 33, "object_type": "restriction", "restriction_type": "oks", "address": "Автозаводская улица, дом 21, корпус 1"}, "geometry": {"type": "MultiPolygon", "coordinates": [[[[37.652677634, 55.702111471], [37.65272253, 55.702136249], [37.652702823, 55.70214776], [37.652750029, 55.70217362], [37.652769912, 55.702162], [37.652843133, 55.702202807], [37.652858639, 55.702193845], [37.652883022, 55.702207729], [37.6529487, 55.702169452], [37.652924602, 55.702155726], [37.653057268, 55.702079061], [37.653174766, 55.702143936], [37.653148856, 55.702158973], [37.653208468, 55.702191638], [37.653259079, 55.702161395], [37.653474125, 55.702280028], [37.653429943, 55.702305097], [37.653489861, 55.702338443], [37.653520597, 55.702320319], [37.653795097, 55.702471685], [37.654005202, 55.702350224], [37.653946502, 55.702318073], [37.653969175, 55.702304926], [37.653924124, 55.702279886], [37.653901452, 55.702293034], [37.653727358, 55.702197146], [37.653762199, 55.702176797], [37.653736777, 55.702161994], [37.653712071, 55.702175836], [37.653418543, 55.702014042], [37.653441441, 55.702001225], [37.653415417, 55.701986934], [37.653355504, 55.702021656], [37.653137374, 55.701900728], [37.653175176, 55.701879294], [37.653126578, 55.701852262], [37.653088792, 55.701873697], [37.652677634, 55.702111471]]]]}}, {"type": "Feature", "properties": {"id": 34, "object_type": "restriction", "restriction_type": "oks", "address": "Автозаводская улица, дом 25, строение 7"}, "geometry": {"type": "MultiPolygon", "coordinates": [[[[37.630274634, 55.70346769], [37.630479679, 55.703464886], [37.630480775, 55.703490278], [37.630596103, 55.7034887], [37.630591474, 55.703381076], [37.63046908, 55.70338275], [37.630466034, 55.703312157], [37.63026807, 55.703314872], [37.630274634, 55.70346769]]]]}}, {"type": "Feature", "properties": {"id": 35, "object_type": "restriction", "restriction_type": "oks", "address": "Автозаводская улица, дом 25, строение 1"}, "geometry": {"type": "MultiPolygon", "coordinates": [[[[37.632638259, 55.704193989], [37.633080587, 55.704183527], [37.633077707, 55.704144681], [37.633235949, 55.704140937], [37.633224018, 55.70398021], [37.632623435, 55.703994417], [37.632638259, 55.704193989]]]]}}, {"type": "Feature", "properties": {"id": 36, "object_type": "restriction", "restriction_type": "oks", "address": "Автозаводская улица, дом 23, строение 299"}, "geometry": {"type": "MultiPolygon", "coordinates": [[[[37.652460756, 55.701914601], [37.652521513, 55.701952738], [37.652652553, 55.701886417], [37.652591796, 55.701848279], [37.652460756, 55.701914601]]]]}}, {"type": "Feature", "properties": {"id": 37, "object_type": "restriction", "restriction_type": "oks", "address": "Автозаводская улица, дом 23, строение 249"}, "geometry": {"type": "MultiPolygon", "coordinates": [[[[37.631681824, 55.696687324], [37.631703146, 55.696724088], [37.631842929, 55.696698273], [37.631821605, 55.69666151], [37.631681824, 55.696687324]]]]}}, {"type": "Feature", "properties": {"id": 106, "object_type": "heat_chamber"}, "geometry": {"type": "Point", "coordinates": [37.638461839014155, 55.697638532622726]}}, {"type": "Feature", "properties": {"id": 107, "object_type": "heat_chamber"}, "geometry": {"type": "Point", "coordinates": [37.639557136852176, 55.69865158990196]}}, {"type": "Feature", "properties": {"id": 108, "object_type": "heat_chamber"}, "geometry": {"type": "Point", "coordinates": [37.64002953630141, 55.699944966732645]}}, {"type": "Feature", "properties": {"id": 109, "object_type": "heat_chamber"}, "geometry": {"type": "Point", "coordinates": [37.63998799936458, 55.69926893601545]}}, {"type": "Feature", "properties": {"id": 110, "object_type": "heat_chamber"}, "geometry": {"type": "Point", "coordinates": [37.639132446457374, 55.69802165934685]}}, {"type": "Feature", "properties": {"id": 111, "object_type": "heat_chamber"}, "geometry": {"type": "Point", "coordinates": [37.63723902025704, 55.69591410141635]}}, {"type": "Feature", "properties": {"id": 112, "object_type": "heat_chamber"}, "geometry": {"type": "Point", "coordinates": [37.636558586489386, 55.69497149089124]}}, {"type": "Feature", "properties": {"id": 113, "object_type": "heat_chamber"}, "geometry": {"type": "Point", "coordinates": [37.636095454466684, 55.69428608084644]}}, {"type": "Feature", "properties": {"id": 114, "object_type": "heat_chamber"}, "geometry": {"type": "Point", "coordinates": [37.63743629829632, 55.693580190823454]}}, {"type": "Feature", "properties": {"id": 115, "diameter": 500, "object_type": "heat_network"}, "geometry": {"type": "LineString", "coordinates": [[37.64079875310378, 55.700214414852034], [37.64074858679058, 55.7001284272387]]}}, {"type": "Feature", "properties": {"id": 116, "diameter": 500, "object_type": "heat_network"}, "geometry": {"type": "LineString", "coordinates": [[37.64103024973653, 55.70235373754567], [37.641933243374034, 55.70225597614395], [37.641868445219494, 55.702063986173414], [37.641797376275804, 55.70180721283675], [37.64173048785821, 55.701648200979676], [37.6416777087162, 55.70153865910176], [37.641608730035564, 55.70141969391882], [37.64152302925052, 55.70128894958723], [37.64139970373059, 55.701118156783494], [37.641353717943495, 55.70104866156696], [37.64126174636931, 55.700896713968135], [37.641169774795124, 55.70074358788333], [37.64109034479923, 55.700609307592146], [37.64096492901624, 55.70043733391388], [37.64089804059865, 55.70035016888388], [37.64088027336271, 55.700325727303415]]}}, {"type": "Feature", "properties": {"id": 117, "diameter": 500, "object_type": "heat_network"}, "geometry": {"type": "LineString", "coordinates": [[37.64085832560069, 55.700294512732626], [37.64079875310378, 55.700214414852034]]}}, {"type": "Feature", "properties": {"id": 118, "diameter": 500, "object_type": "heat_network"}, "geometry": {"type": "LineString", "coordinates": [[37.64074858679058, 55.7001284272387], [37.640725075584776, 55.70009252303051]]}}, {"type": "Feature", "properties": {"id": 119, "diameter": 500, "object_type": "heat_network"}, "geometry": {"type": "LineString", "coordinates": [[37.640725075584776, 55.70009252303051], [37.64067960810994, 55.70001416943239]]}}, {"type": "Feature", "properties": {"id": 120, "diameter": 500, "object_type": "heat_network"}, "geometry": {"type": "LineString", "coordinates": [[37.64088027336271, 55.700325727303415], [37.64085832560069, 55.700294512732626]]}}, {"type": "Feature", "properties": {"id": 121, "diameter": 400, "object_type": "heat_network"}, "geometry": {"type": "LineString", "coordinates": [[37.64067960810994, 55.70001416943239], [37.64056464364219, 55.69981510091008], [37.64002953630146, 55.69994496673265]]}}, {"type": "Feature", "properties": {"id": 122, "diameter": 400, "object_type": "heat_network"}, "geometry": {"type": "LineString", "coordinates": [[37.639899939992375, 55.699765922583445], [37.639774075349905, 55.69957509248492], [37.64013822998004, 55.69949499895607], [37.639987999364614, 55.69926893601545]]}}, {"type": "Feature", "properties": {"id": 123, "diameter": 400, "object_type": "heat_network"}, "geometry": {"type": "LineString", "coordinates": [[37.639557136852204, 55.698651589902006], [37.63925186507907, 55.69819201742701], [37.63913244645741, 55.69802165934685]]}}, {"type": "Feature", "properties": {"id": 124, "diameter": 400, "object_type": "heat_network"}, "geometry": {"type": "LineString", "coordinates": [[37.639987999364614, 55.69926893601545], [37.63957055801799, 55.69866855213194], [37.639557136852204, 55.698651589902006]]}}, {"type": "Feature", "properties": {"id": 125, "diameter": 400, "object_type": "heat_network"}, "geometry": {"type": "LineString", "coordinates": [[37.64002953630146, 55.69994496673265], [37.63994174525337, 55.69983895384862], [37.639899939992375, 55.699765922583445]]}}, {"type": "Feature", "properties": {"id": 126, "diameter": 400, "object_type": "heat_network"}, "geometry": {"type": "LineString", "coordinates": [[37.63913244645741, 55.69802165934685], [37.63877119794549, 55.69811208127024], [37.63850132531293, 55.69769516944471], [37.638461839014134, 55.697638532622726]]}}, {"type": "Feature", "properties": {"id": 127, "diameter": 400, "object_type": "heat_network"}, "geometry": {"type": "LineString", "coordinates": [[37.638461839014134, 55.697638532622726], [37.63837822849214, 55.69750659764934]]}}, {"type": "Feature", "properties": {"id": 128, "diameter": 400, "object_type": "heat_network"}, "geometry": {"type": "LineString", "coordinates": [[37.638240271130854, 55.69734639029723], [37.63837822849214, 55.69750659764934]]}}, {"type": "Feature", "properties": {"id": 129, "diameter": 400, "object_type": "heat_network"}, "geometry": {"type": "LineString", "coordinates": [[37.63723902025703, 55.69591410141636], [37.637679907404305, 55.69652711254041], [37.637584554188415, 55.69654859867515], [37.63764674826376, 55.696640692191245], [37.63773860799891, 55.69662073700922], [37.638110674821775, 55.69716733424431], [37.638240271130854, 55.69734639029723]]}}, {"type": "Feature", "properties": {"id": 130, "diameter": 400, "object_type": "heat_network"}, "geometry": {"type": "LineString", "coordinates": [[37.63720768118427, 55.695866797246474], [37.63723902025703, 55.69591410141636]]}}, {"type": "Feature", "properties": {"id": 131, "diameter": 400, "object_type": "heat_network"}, "geometry": {"type": "LineString", "coordinates": [[37.63665114864728, 55.69510783616579], [37.636781267522124, 55.69527541556877], [37.637004037563905, 55.69560832317614], [37.636915674303424, 55.6956268365628], [37.63697786489979, 55.69571902033464], [37.637069723823, 55.69569951489047], [37.637201297744156, 55.6958620177174], [37.63720768118427, 55.695866797246474]]}}, {"type": "Feature", "properties": {"id": 132, "diameter": 400, "object_type": "heat_network"}, "geometry": {"type": "LineString", "coordinates": [[37.636628927170676, 55.69507507378958], [37.63665114864728, 55.69510783616579]]}}, {"type": "Feature", "properties": {"id": 133, "diameter": 400, "object_type": "heat_network"}, "geometry": {"type": "LineString", "coordinates": [[37.636558586489386, 55.694971490891284], [37.636628927170676, 55.69507507378958]]}}, {"type": "Feature", "properties": {"id": 134, "diameter": 400, "object_type": "heat_network"}, "geometry": {"type": "LineString", "coordinates": [[37.63653636516767, 55.69493872849752], [37.636558586489386, 55.694971490891284]]}}, {"type": "Feature", "properties": {"id": 135, "diameter": 400, "object_type": "heat_network"}, "geometry": {"type": "LineString", "coordinates": [[37.63652356685343, 55.69491727390603], [37.63653636516767, 55.69493872849752]]}}, {"type": "Feature", "properties": {"id": 136, "diameter": 400, "object_type": "heat_network"}, "geometry": {"type": "LineString", "coordinates": [[37.636503725554924, 55.694882891951075], [37.63652356685343, 55.69491727390603]]}}, {"type": "Feature", "properties": {"id": 137, "diameter": 400, "object_type": "heat_network"}, "geometry": {"type": "LineString", "coordinates": [[37.63647527977447, 55.69484384853319], [37.636503725554924, 55.694882891951075]]}}, {"type": "Feature", "properties": {"id": 138, "diameter": 400, "object_type": "heat_network"}, "geometry": {"type": "LineString", "coordinates": [[37.636082826284806, 55.69426768016567], [37.636095454466734, 55.69428608084639]]}}, {"type": "Feature", "properties": {"id": 139, "diameter": 400, "object_type": "heat_network"}, "geometry": {"type": "LineString", "coordinates": [[37.63614697544455, 55.69405570489723], [37.6361950896835, 55.69412562731266], [37.63601249037645, 55.69416463590455], [37.636082826284806, 55.69426768016567]]}}, {"type": "Feature", "properties": {"id": 140, "diameter": 400, "object_type": "heat_network"}, "geometry": {"type": "LineString", "coordinates": [[37.636132429786294, 55.694034701344265], [37.63614697544455, 55.69405570489723]]}}, {"type": "Feature", "properties": {"id": 141, "diameter": 400, "object_type": "heat_network"}, "geometry": {"type": "LineString", "coordinates": [[37.636095454466734, 55.69428608084639], [37.63647527977447, 55.69484384853319]]}}, {"type": "Feature", "properties": {"id": 142, "diameter": 400, "object_type": "heat_network"}, "geometry": {"type": "LineString", "coordinates": [[37.636132429786294, 55.694034701344265], [37.63604392723133, 55.69389823909859], [37.63625161971692, 55.69385661580303], [37.63716169539718, 55.69373212642513], [37.63730515063859, 55.69355114304301], [37.63743629829632, 55.69358019082341]]}}, {"type": "Feature", "properties": {"id": 143, "diameter": 300, "object_type": "heat_network"}, "geometry": {"type": "LineString", "coordinates": [[37.63743629829632, 55.69358019082341], [37.63860465566641, 55.69220379599268]]}}, {"type": "Feature", "properties": {"id": 144, "name": "ТЭЦ ЗИЛ", "object_type": "source"}, "geometry": {"type": "Point", "coordinates": [37.64103024973653, 55.70235373754567]}}]}